ENTRYSAT                
1 44429U 98067QP  20009.73563299  .00010220  00000-0  15763-3 0  9998
2 44429  51.6412  53.5088 0003229  86.6200 273.5160 15.54785936 29649
VCC C                   
1 44430U 98067QQ  20009.14531885  .00011720  00000-0  17730-3 0  9993
2 44430  51.6414  56.3204 0003298  93.2552 266.8817 15.55156261 28371
VCC B                   
1 44431U 98067QR  20008.41110012  .00007493  00000-0  11939-3 0  9995
2 44431  51.6423  60.4152 0003589  92.1351 268.0051 15.54343178 29377
DUCHIFAT-3              
1 44854U 19089C   20009.89498445  .00000316  00000-0  32080-4 0  9991
2 44854  36.9699 321.2229 0008461 217.7549 142.2613 14.98945643  4347
